IRIDIUM 63              
1 25286U 98021B   25196.73812839  .00000253  00000+0  79475-4 0  9992
2 25286  86.3952  70.1521 0002138  91.3362 268.8080 14.36561558427944
IRIDIUM 69              
1 25319U 98026A   25196.73260283  .00000325  00000+0  95023-4 0  9991
2 25319  86.3954  83.3600 0000984 358.3891   1.7305 14.40989214427174
IRIDIUM 71              
1 25320U 98026B   25196.94400524  .00000247  00000+0  70271-4 0  9991
2 25320  86.3949  77.9556 0002905  39.4419 320.6992 14.41175697427737
IRIDIUM 73              
1 25344U 98032C   25196.94260279  .00000350  00000+0  82128-4 0  9994
2 25344  86.4395  34.5984 0001582  94.3002 265.8385 14.51737425434739
IRIDIUM 82              
1 25467U 98051A   25196.75272393  .00017621  00000+0  48952-3 0  9995
2 25467  86.3651  95.6814 0082818 185.7562 174.2746 15.33266075428338
